STARLINK-31533          
1 59505U 24071X   26009.54003148  .00000522  00000+0  28488-4 0  9992
2 59505  43.0043 314.2868 0001208 278.4318  81.6397 15.27576979 99152
STARLINK-31524          
1 59506U 24071Y   26008.92677066  .00002662  00000+0  10625-3 0  9990
2 59506  43.0042 310.3090 0001344 272.1263  87.9435 15.27576173 99144
STARLINK-31635          
1 59511U 24073A   26009.47335497  .00003738  00000+0  14527-3 0  9998
2 59511  43.0037 292.0683 0001890 275.9341  84.1295 15.27586477 97129
STARLINK-31650          
1 59512U 24073B   26009.50935385  .00005217  00000+0  19890-3 0  9997
2 59512  43.0018 292.3379 0000748 253.0115 107.0655 15.27588588 97121
STARLINK-31658          
1 59513U 24073C   26008.09886364  .00003438  00000+0  13445-3 0  9996
2 59513  43.0010 259.9279 0001274 261.9655  98.1052 15.27567310 97361
STARLINK-31669          
1 59515U 24073E   26009.09131841  .00005292  00000+0  20167-3 0  9991
2 59515  43.0016 294.3613 0001286 268.1172  91.9532 15.27586284 97062
STARLINK-31671          
1 59516U 24073F   26009.06192014  .00001836  00000+0  76185-4 0  9990
2 59516  43.0017 294.9970 0001745 264.4238  95.6414 15.27602047 97053
STARLINK-31674          
1 59517U 24073G   26009.49520436  .00003043  00000+0  12007-3 0  9995
2 59517  43.0060 292.2325 0001519 266.2990  93.7688 15.27582058 97120
STARLINK-31679          
1 59519U 24073J   26008.17994872 -.00001234  00000+0 -35316-4 0  9991
2 59519  43.0008 289.1734 0000570 335.6330  24.4494 15.27590399 97042
STARLINK-31370          
1 59520U 24073K   26008.20933391 -.00001991  00000+0 -62832-4 0  9999
2 59520  43.0010 299.7830 0001162 286.3230  73.7494 15.27591008 96921
STARLINK-31404          
1 59521U 24073L   26009.06962748  .00003724  00000+0  14475-3 0  9996
2 59521  43.0013 295.0544 0000958 285.1729  74.9017 15.27585301 97056
STARLINK-31453          
1 59522U 24073M   26009.42319543  .00034709  00000+0  12636-2 0  9999
2 59522  42.9994 274.9444 0001943 278.4446  81.6185 15.27614304 97310
STARLINK-31476          
1 59523U 24073N   26009.05550254  .00019937  00000+0  73346-3 0  9997
2 59523  43.0023 294.9518 0001186 298.8067  61.2666 15.27516796 97059
STARLINK-31538          
1 59525U 24073Q   26008.96442260  .00002001  00000+0  82294-4 0  9992
2 59525  43.0044 295.1267 0001221 264.0466  96.0247 15.27548488 97049
STARLINK-31564          
1 59526U 24073R   26009.08747355  .00007145  00000+0  26875-3 0  9996
2 59526  42.9997 294.3298 0001577 277.7317  82.3356 15.27599434 97068
STARLINK-31452          
1 59527U 24073S   26008.15036214 -.00000190  00000+0  26175-5 0  9998
2 59527  42.9998 300.1968 0001151 254.5772 105.4952 15.27610439 96917
