[{"OBJECT_NAME":"STARLINK-31533","OBJECT_ID":"2024-071X","EPOCH":"2026-01-09T12:57:38.719872","MEAN_MOTION":15.27576979,"ECCENTRICITY":0.00012083,"INCLINATION":43.0043,"RA_OF_ASC_NODE":314.2868,"ARG_OF_PERICENTER":278.4318,"MEAN_ANOMALY":81.6397,"EPHEMERIS_TYPE":0,"CLASSIFICATION_TYPE":"U","NORAD_CAT_ID":59505,"ELEMENT_SET_NO":999,"REV_AT_EPOCH":9915,"BSTAR":2.8487861e-5,"MEAN_MOTION_DOT":5.22e-6,"MEAN_MOTION_DDOT":0},{"OBJECT_NAME":"STARLINK-31524","OBJECT_ID":"2024-071Y","EPOCH":"2026-01-08T22:14:32.985024","MEAN_MOTION":15.27576173,"ECCENTRICITY":0.0001344,"INCLINATION":43.0042,"RA_OF_ASC_NODE":310.309,"ARG_OF_PERICENTER":272.1263,"MEAN_ANOMALY":87.9435,"EPHEMERIS_TYPE":0,"CLASSIFICATION_TYPE":"U","NORAD_CAT_ID":59506,"ELEMENT_SET_NO":999,"REV_AT_EPOCH":9914,"BSTAR":0.00010624792,"MEAN_MOTION_DOT":2.662e-5,"MEAN_MOTION_DDOT":0},{"OBJECT_NAME":"STARLINK-31635","OBJECT_ID":"2024-073A","EPOCH":"2026-01-09T11:21:37.869408","MEAN_MOTION":15.27586477,"ECCENTRICITY":0.00018902,"INCLINATION":43.0037,"RA_OF_ASC_NODE":292.0683,"ARG_OF_PERICENTER":275.9341,"MEAN_ANOMALY":84.1295,"EPHEMERIS_TYPE":0,"CLASSIFICATION_TYPE":"U","NORAD_CAT_ID":59511,"ELEMENT_SET_NO":999,"REV_AT_EPOCH":9712,"BSTAR":0.000145272,"MEAN_MOTION_DOT":3.738e-5,"MEAN_MOTION_DDOT":0},{"OBJECT_NAME":"STARLINK-31650","OBJECT_ID":"2024-073B","EPOCH":"2026-01-09T12:13:28.172640","MEAN_MOTION":15.27588588,"ECCENTRICITY":7.488e-5,"INCLINATION":43.0018,"RA_OF_ASC_NODE":292.3379,"ARG_OF_PERICENTER":253.0115,"MEAN_ANOMALY":107.0655,"EPHEMERIS_TYPE":0,"CLASSIFICATION_TYPE":"U","NORAD_CAT_ID":59512,"ELEMENT_SET_NO":999,"REV_AT_EPOCH":9712,"BSTAR":0.00019890196,"MEAN_MOTION_DOT":5.217e-5,"MEAN_MOTION_DDOT":0},{"OBJECT_NAME":"STARLINK-31658","OBJECT_ID":"2024-073C","EPOCH":"2026-01-08T02:22:21.818496","MEAN_MOTION":15.2756731,"ECCENTRICITY":0.00012746,"INCLINATION":43.001,"RA_OF_ASC_NODE":259.9279,"ARG_OF_PERICENTER":261.9655,"MEAN_ANOMALY":98.1052,"EPHEMERIS_TYPE":0,"CLASSIFICATION_TYPE":"U","NORAD_CAT_ID":59513,"ELEMENT_SET_NO":999,"REV_AT_EPOCH":9736,"BSTAR":0.00013444947,"MEAN_MOTION_DOT":3.438e-5,"MEAN_MOTION_DDOT":0},{"OBJECT_NAME":"STARLINK-31669","OBJECT_ID":"2024-073E","EPOCH":"2026-01-09T02:11:29.910624","MEAN_MOTION":15.27586284,"ECCENTRICITY":0.0001286,"INCLINATION":43.0016,"RA_OF_ASC_NODE":294.3613,"ARG_OF_PERICENTER":268.1172,"MEAN_ANOMALY":91.9532,"EPHEMERIS_TYPE":0,"CLASSIFICATION_TYPE":"U","NORAD_CAT_ID":59515,"ELEMENT_SET_NO":999,"REV_AT_EPOCH":9706,"BSTAR":0.00020167,"MEAN_MOTION_DOT":5.292e-5,"MEAN_MOTION_DDOT":0},{"OBJECT_NAME":"STARLINK-31671","OBJECT_ID":"2024-073F","EPOCH":"2026-01-09T01:29:09.900096","MEAN_MOTION":15.27602047,"ECCENTRICITY":0.0001745,"INCLINATION":43.0017,"RA_OF_ASC_NODE":294.997,"ARG_OF_PERICENTER":264.4238,"MEAN_ANOMALY":95.6414,"EPHEMERIS_TYPE":0,"CLASSIFICATION_TYPE":"U","NORAD_CAT_ID":59516,"ELEMENT_SET_NO":999,"REV_AT_EPOCH":9705,"BSTAR":7.6185e-5,"MEAN_MOTION_DOT":1.836e-5,"MEAN_MOTION_DDOT":0},{"OBJECT_NAME":"STARLINK-31674","OBJECT_ID":"2024-073G","EPOCH":"2026-01-09T11:53:05.656704","MEAN_MOTION":15.27582058,"ECCENTRICITY":0.00015195,"INCLINATION":43.006,"RA_OF_ASC_NODE":292.2325,"ARG_OF_PERICENTER":266.299,"MEAN_ANOMALY":93.7688,"EPHEMERIS_TYPE":0,"CLASSIFICATION_TYPE":"U","NORAD_CAT_ID":59517,"ELEMENT_SET_NO":999,"REV_AT_EPOCH":9712,"BSTAR":0.00012007049,"MEAN_MOTION_DOT":3.043e-5,"MEAN_MOTION_DDOT":0},{"OBJECT_NAME":"STARLINK-31679","OBJECT_ID":"2024-073J","EPOCH":"2026-01-08T04:19:07.569408","MEAN_MOTION":15.27590399,"ECCENTRICITY":5.704e-5,"INCLINATION":43.0008,"RA_OF_ASC_NODE":289.1734,"ARG_OF_PERICENTER":335.633,"MEAN_ANOMALY":24.4494,"EPHEMERIS_TYPE":0,"CLASSIFICATION_TYPE":"U","NORAD_CAT_ID":59519,"ELEMENT_SET_NO":999,"REV_AT_EPOCH":9704,"BSTAR":-3.531602e-5,"MEAN_MOTION_DOT":-1.234e-5,"MEAN_MOTION_DDOT":0},{"OBJECT_NAME":"STARLINK-31370","OBJECT_ID":"2024-073K","EPOCH":"2026-01-08T05:01:26.449824","MEAN_MOTION":15.27591008,"ECCENTRICITY":0.0001162,"INCLINATION":43.001,"RA_OF_ASC_NODE":299.783,"ARG_OF_PERICENTER":286.323,"MEAN_ANOMALY":73.7494,"EPHEMERIS_TYPE":0,"CLASSIFICATION_TYPE":"U","NORAD_CAT_ID":59520,"ELEMENT_SET_NO":999,"REV_AT_EPOCH":9692,"BSTAR":-6.2832e-5,"MEAN_MOTION_DOT":-1.991e-5,"MEAN_MOTION_DDOT":0},{"OBJECT_NAME":"STARLINK-31404","OBJECT_ID":"2024-073L","EPOCH":"2026-01-09T01:40:15.814272","MEAN_MOTION":15.27585301,"ECCENTRICITY":9.58e-5,"INCLINATION":43.0013,"RA_OF_ASC_NODE":295.0544,"ARG_OF_PERICENTER":285.1729,"MEAN_ANOMALY":74.9017,"EPHEMERIS_TYPE":0,"CLASSIFICATION_TYPE":"U","NORAD_CAT_ID":59521,"ELEMENT_SET_NO":999,"REV_AT_EPOCH":9705,"BSTAR":0.00014475,"MEAN_MOTION_DOT":3.724e-5,"MEAN_MOTION_DDOT":0},{"OBJECT_NAME":"STARLINK-31453","OBJECT_ID":"2024-073M","EPOCH":"2026-01-09T10:09:24.085152","MEAN_MOTION":15.27614304,"ECCENTRICITY":0.00019438,"INCLINATION":42.9994,"RA_OF_ASC_NODE":274.9444,"ARG_OF_PERICENTER":278.4446,"MEAN_ANOMALY":81.6185,"EPHEMERIS_TYPE":0,"CLASSIFICATION_TYPE":"U","NORAD_CAT_ID":59522,"ELEMENT_SET_NO":999,"REV_AT_EPOCH":9731,"BSTAR":0.0012635693,"MEAN_MOTION_DOT":0.00034709,"MEAN_MOTION_DDOT":0},{"OBJECT_NAME":"STARLINK-31476","OBJECT_ID":"2024-073N","EPOCH":"2026-01-09T01:19:55.419456","MEAN_MOTION":15.27516796,"ECCENTRICITY":0.0001186,"INCLINATION":43.0023,"RA_OF_ASC_NODE":294.9518,"ARG_OF_PERICENTER":298.8067,"MEAN_ANOMALY":61.2666,"EPHEMERIS_TYPE":0,"CLASSIFICATION_TYPE":"U","NORAD_CAT_ID":59523,"ELEMENT_SET_NO":999,"REV_AT_EPOCH":9705,"BSTAR":0.00073346,"MEAN_MOTION_DOT":0.00019937,"MEAN_MOTION_DDOT":0},{"OBJECT_NAME":"STARLINK-31538","OBJECT_ID":"2024-073Q","EPOCH":"2026-01-08T23:08:46.112640","MEAN_MOTION":15.27548488,"ECCENTRICITY":0.0001221,"INCLINATION":43.0044,"RA_OF_ASC_NODE":295.1267,"ARG_OF_PERICENTER":264.0466,"MEAN_ANOMALY":96.0247,"EPHEMERIS_TYPE":0,"CLASSIFICATION_TYPE":"U","NORAD_CAT_ID":59525,"ELEMENT_SET_NO":999,"REV_AT_EPOCH":9704,"BSTAR":8.2294e-5,"MEAN_MOTION_DOT":2.001e-5,"MEAN_MOTION_DDOT":0},{"OBJECT_NAME":"STARLINK-31564","OBJECT_ID":"2024-073R","EPOCH":"2026-01-09T02:05:57.714720","MEAN_MOTION":15.27599434,"ECCENTRICITY":0.0001577,"INCLINATION":42.9997,"RA_OF_ASC_NODE":294.3298,"ARG_OF_PERICENTER":277.7317,"MEAN_ANOMALY":82.3356,"EPHEMERIS_TYPE":0,"CLASSIFICATION_TYPE":"U","NORAD_CAT_ID":59526,"ELEMENT_SET_NO":999,"REV_AT_EPOCH":9706,"BSTAR":0.00026875,"MEAN_MOTION_DOT":7.145e-5,"MEAN_MOTION_DDOT":0},{"OBJECT_NAME":"STARLINK-31452","OBJECT_ID":"2024-073S","EPOCH":"2026-01-08T03:36:31.288896","MEAN_MOTION":15.27610439,"ECCENTRICITY":0.00011511,"INCLINATION":42.9998,"RA_OF_ASC_NODE":300.1968,"ARG_OF_PERICENTER":254.5772,"MEAN_ANOMALY":105.4952,"EPHEMERIS_TYPE":0,"CLASSIFICATION_TYPE":"U","NORAD_CAT_ID":59527,"ELEMENT_SET_NO":999,"REV_AT_EPOCH":9691,"BSTAR":2.617522e-6,"MEAN_MOTION_DOT":-1.9e-6,"MEAN_MOTION_DDOT":0}]
